#dP2018  8 15  0  0  0.00000000      96 __u+U IGS08 FIT  IAC
## 2014 259200.00000000   900.00000000 58345 0.0000000000000
+   86   C01C02C03C04C05C06C07C08C09C10C11C12C13C14E01E02E03
+        E04E05E07E08E09E11E12E14E18E19E24E26E30G01G02G03G05
+        G06G07G08G09G10G11G12G13G14G15G16G17G18G19G20G21G22
+        G23G24G25G26G27G28G29G30G31G32J01J02J03R01R02R03R04
+        R07R08R09R10R11R13R14R15R16R17R18R19R20R21R22R23R24
+        R26  0  0  0  0  0  0  0  0  0  0  0  0  0  0  0  0
++        12 12 13 12 12  9  8  8  8  8  8  7  8  7  7  7  7
++         7  7  7  7  7  7  7  7  7  7  7  7  7  3  3  3  3
++         3  3  3  3  3  3  6  3  3  3  3  3  3  3  3  3  3
++         3  3  3  3  3  3  3  3  3  3 10 11 11  5  5  5  5
++         5  5  5  5  5  5  5  5  5  5  5  5  5  5  5  5  5
++         8  0  0  0  0  0  0  0  0  0  0  0  0  0  0  0  0
%c M  cc GPS ccc cccc cccc cccc cccc ccccc ccccc ccccc ccccc
%c cc cc ccc ccc cccc cccc cccc cccc ccccc ccccc ccccc ccccc
%f  1.2500000  1.025000000  0.00000000000  0.000000000000000
%f  0.0000000  0.000000000  0.00000000000  0.000000000000000
%i    0    0    0    0      0      0      0      0         0
%i    0    0    0    0      0      0      0      0         0
/* INFORMATION & ANALYSIS CENTER (IAC)            FINAL DATA
/* S/V CLOCKS ARE ALIGNED TO GPS & GLONASS TIME RESPECTIVELY
/* USING THE BROADCAST EPHEMERIS                            
/* PCV:IGS14_2000 OL/AL:FES2004  NONE     YN ORB:CoN CLK:CoN
*  2018 08 15 22 15  0.00000000
PC01 -32296.805102  27082.799782   1017.925326    475.129513
PC02   4390.973094  41920.971793  -1268.689158   -105.485676
PC03 -14838.673312  39452.454301    436.186716    378.938852
PC04 -39634.416925  14409.411136    467.352739   -234.381986
PC05  21943.226768  35974.708022  -1057.912141    -50.330019
PC06  -6464.353795  34028.024414 -23503.654455    228.014495
PC07 -17533.621412  21830.870512  31540.898623     22.020924
PC08 -23719.747685  34312.309467  -6968.823075    485.243394
PC09   2087.150562  39901.818909 -12769.301020     28.895752
PC10  -1259.123708  25693.099902  33553.773560      5.696855
PC11   3282.168865 -27420.071136   3755.935110   -637.003102
PC12  13643.527952 -19604.698025 -14300.374914    561.228638
PC13 -13055.698384  35500.189675 -18889.587017   -228.651265
PC14  -3265.270700 -20388.878380  18852.964164    296.942074
PE01 -19867.615787 -12580.540732 -17964.611498   -413.572204
PE02  19911.558861  12567.724179  17943.556842     23.637803
PE03  16915.641432  23593.489877   5826.026088    -66.126107
PE04 -20081.522706  -6865.970386 -20623.932691    -97.007788
PE05   3808.013892  26571.898091 -12470.121769    210.716565
PE07  11498.650048 -13989.822612  23425.953010    -20.721630
PE08  20045.471389   6723.169738  20731.096745   6522.738658
PE09 -11235.361496  14026.488791 -23510.880736   6704.954943
PE11 -18826.902812  21853.957678   6600.055376   3760.263385
PE12 -19739.446621   4222.863019  21641.561659   4835.470540
PE14  20332.251135   4453.905728 -24622.504084   6534.826213
PE18 -13973.144388  -9522.217770  16990.067593   5980.346304
PE19 -16063.920235 -24531.193722  -4044.275781    -13.158330
PE24 -21815.529472  10288.189463  17155.350201   6545.200480
PE26   7100.445223 -26224.613915  11735.847377   5589.633066
PE30  29550.732312   1676.406696    505.013610   5592.882496
PG01  -7696.104771  19057.290558 -16815.208174    -76.859122
PG02  21284.493954 -15604.504494   -923.629539     26.984291
PG03   3054.429748  17069.973056 -20165.148846    122.093222
PG05  17737.418181  -6615.251635  18603.761799     -3.159040
PG06  21845.690601  -2739.526850 -14845.057360    375.807565
PG07   8437.102216  12875.128736  21874.340963    141.111261
PG08  -6534.078698  22490.522122  12420.754676   -111.781270
PG09   7765.655831  24146.109869   7831.908522    510.875171
PG10 -24348.672596 -10782.634836  -1055.040995    186.614136
PG11  -6975.313967  24461.124539  -8525.572926   -724.533886
PG12   3440.469121 -14773.772303 -22011.151514    313.818342
PG13  12430.537124 -16018.577548  17043.410615    -90.921620
PG14 -15073.218086    205.511241 -21562.362660    -97.609472
PG15   2758.575439 -24568.841234   8945.497144   -348.418169
PG16 -18934.960438   3007.628937  18403.440632     13.420280
PG17  13506.268026  10731.299811 -19842.596356    -66.895793
PG18 -14861.261049  19853.517713  -9744.566747     46.051823
PG19  14926.783514   -313.863046 -22267.713054   -411.458125
PG20 -20757.962922 -14122.480626   8692.885281    514.212013
PG21 -12324.992303 -10482.406952  21861.499503   -352.057288
PG22  -5738.358501  14776.434908 -21074.841631   -490.272790
PG23   1205.391787  26228.136717  -1672.098693   -212.744044
PG24  10775.311865 -20217.485620 -13300.982942    -54.010481
PG25 -12231.266063 -17824.356838 -15767.524209   -632.177066
PG26 -24269.307394  -2830.846283  10572.059333    -50.588080
PG27 -12279.173669  12686.981651  19672.473289    353.638869
PG28  22157.382505  14538.514281   1852.984999    738.440986
PG29  -4922.962628 -25185.181536   6827.957025    395.299861
PG30  17681.956063   5439.106670  19136.377806     37.172614
PG31 -23041.143268   4066.040746 -12928.194018    100.414019
PG32 -14848.007570  -9482.982519 -19859.816353   -450.582825
PJ01 -21864.764969  20046.613355 -25336.963176   -140.593431
PJ02 -31917.555131  25142.228490  16060.842455     -9.313635
PJ03 -25951.893187  26560.717679  25018.776780     -3.617250
PR01   3979.988365 -12087.850101  22108.542563     30.583201
PR02 -11066.767379 -21163.884003   9069.307100    324.889834
PR03 -17815.597328 -16169.206610  -8495.083843    140.608274
PR04 -13927.111748  -1292.548082 -21316.227734    272.505973
PR07  17846.304134  15814.608976   9049.800608    -44.878409
PR08  14257.524153   1891.902201  21119.945901     21.764269
PR09   5497.923187  10340.251867  22684.116729     23.423851
PR10  20836.137884   3934.367772  14231.520311     29.791174
PR11  24859.844476  -4872.340131  -3202.643602    -37.834415
PR13  -5185.080229 -10074.001339 -22864.946309    -13.620107
PR14 -20720.318304  -4051.380591 -14282.663711     30.074121
PR15 -25379.282480   2800.536769  -1079.465703    -14.751829
PR16 -14872.074228  10828.192893  17703.903954     99.407928
PR17  -7887.005996  -8436.675710  22741.021731    156.340507
PR18 -13429.465320   9120.868960  19661.937467    206.920862
PR19 -12144.280081  21733.394227   5560.665784    -58.061531
PR20  -2961.627904  21659.315757 -13107.021324   -348.820509
PR21   7990.871496   8070.435861 -22849.156452      1.840141
PR22  13691.136823 -11319.931940 -18363.707588    -59.099718
PR23  10293.701687 -23296.461512  -1406.121323    172.182612
PR24   1921.803185 -21247.392354  13959.604225   -170.164032
PR26  -3225.133213  22250.844508 -12067.599714     41.029591
EOF
